{"type": "FeatureCollection", "features": [ {"type": "Feature", "properties": {"norad_id": 31959, "name": "FENGYUN 1C DEB", "group": "fengyun-1c-debris", "lat": -43.14742894450266, "lon": -139.00659303769876, "alt_km": 758.7381776900847, "timestamp": "2025-12-07T22:37:43.365218+00:00", "meta": {"OBJECT_NAME": "FENGYUN 1C DEB", "OBJECT_ID": "1999-025CNL", "EPOCH": "2025-12-06T21:55:52.829760", "MEAN_MOTION": 14.46598165, "ECCENTRICITY": 0.00265669, "INCLINATION": 98.5093, "RA_OF_ASC_NODE": 211.893, "ARG_OF_PERICENTER": 174.6501, "MEAN_ANOMALY": 185.498, "EPHEMERIS_TYPE": 0, "CLASSIFICATION_TYPE": "U", "NORAD_CAT_ID": 31959, "ELEMENT_SET_NO": 999, "REV_AT_EPOCH": 64269, "BSTAR": 0.0041280516, "MEAN_MOTION_DOT": 0.0001494, "MEAN_MOTION_DDOT": 0}, "tle": {"line1": "1 31959U 99025CNL 25340.91380590  .00014940  00000+0  41281-2 0  9996", "line2": "2 31959  98.5093 211.8930 0026566 174.6501 185.4980 14.46598165642697"}}, "geometry": {"type": "Point", "coordinates": [-139.00659303769876, -43.14742894450266]}}, {"type": "Feature", "properties": {"norad_id": 31964, "name": "FENGYUN 1C DEB", "group": "fengyun-1c-debris", "lat": -72.31541743253761, "lon": -103.34938144700288, "alt_km": 724.0046655771903, "timestamp": "2025-12-07T22:37:43.365228+00:00", "meta": {"OBJECT_NAME": "FENGYUN 1C DEB", "OBJECT_ID": "1999-025CNR", "EPOCH": "2025-12-06T14:10:40.867392", "MEAN_MOTION": 14.58272447, "ECCENTRICITY": 0.00288541, "INCLINATION": 98.7002, "RA_OF_ASC_NODE": 103.9384, "ARG_OF_PERICENTER": 51.5034, "MEAN_ANOMALY": 308.8744, "EPHEMERIS_TYPE": 0, "CLASSIFICATION_TYPE": "U", "NORAD_CAT_ID": 31964, "ELEMENT_SET_NO": 999, "REV_AT_EPOCH": 67420, "BSTAR": 0.0044938575, "MEAN_MOTION_DOT": 0.00020897, "MEAN_MOTION_DDOT": 0}, "tle": {"line1": "1 31964U 99025CNR 25340.59075078  .00020897  00000+0  44939-2 0  9999", "line2": "2 31964  98.7002 103.9384 0028854  51.5034 308.8744 14.58272447674201"}}, "geometry": {"type": "Point", "coordinates": [-103.34938144700288, -72.31541743253761]}}, {"type": "Feature", "properties": {"norad_id": 31966, "name": "FENGYUN 1C DEB", "group": "fengyun-1c-debris", "lat": 74.02701614153285, "lon": 100.36059371608184, "alt_km": 713.0237113463145, "timestamp": "2025-12-07T22:37:43.365238+00:00", "meta": {"OBJECT_NAME": "FENGYUN 1C DEB", "OBJECT_ID": "1999-025CNT", "EPOCH": "2025-12-06T16:49:19.238304", "MEAN_MOTION": 14.67408953, "ECCENTRICITY": 0.00862146, "INCLINATION": 99.0171, "RA_OF_ASC_NODE": 132.69, "ARG_OF_PERICENTER": 293.4744, "MEAN_ANOMALY": 65.7413, "EPHEMERIS_TYPE": 0, "CLASSIFICATION_TYPE": "U", "NORAD_CAT_ID": 31966, "ELEMENT_SET_NO": 999, "REV_AT_EPOCH": 65654, "BSTAR": 0.0020726138, "MEAN_MOTION_DOT": 0.00012351, "MEAN_MOTION_DDOT": 0}, "tle": {"line1": "1 31966U 99025CNT 25340.70091711  .00012351  00000+0  20726-2 0  9990", "line2": "2 31966  99.0171 132.6900 0086214 293.4744  65.7413 14.67408953656548"}}, "geometry": {"type": "Point", "coordinates": [100.36059371608184, 74.02701614153285]}}, {"type": "Feature", "properties": {"norad_id": 31972, "name": "FENGYUN 1C DEB", "group": "fengyun-1c-debris", "lat": 69.50573652522314, "lon": -2.23597362356011, "alt_km": 811.059867821531, "timestamp": "2025-12-07T22:37:43.365249+00:00", "meta": {"OBJECT_NAME": "FENGYUN 1C DEB", "OBJECT_ID": "1999-025CNZ", "EPOCH": "2025-12-07T01:57:33.205248", "MEAN_MOTION": 14.07506683, "ECCENTRICITY": 0.00771223, "INCLINATION": 99.2126, "RA_OF_ASC_NODE": 22.6208, "ARG_OF_PERICENTER": 47.4444, "MEAN_ANOMALY": 342.3369, "EPHEMERIS_TYPE": 0, "CLASSIFICATION_TYPE": "U", "NORAD_CAT_ID": 31972, "ELEMENT_SET_NO": 999, "REV_AT_EPOCH": 94881, "BSTAR": 0.00026468372, "MEAN_MOTION_DOT": 4.12e-06, "MEAN_MOTION_DDOT": 0}, "tle": {"line1": "1 31972U 99025CNZ 25341.08163432  .00000412  00000+0  26468-3 0  9994", "line2": "2 31972  99.2126  22.6208 0077122  47.4444 342.3369 14.07506683948819"}}, "geometry": {"type": "Point", "coordinates": [-2.23597362356011, 69.50573652522314]}}, {"type": "Feature", "properties": {"norad_id": 31974, "name": "FENGYUN 1C DEB", "group": "fengyun-1c-debris", "lat": 17.078198075715747, "lon": 175.84804905359044, "alt_km": 840.3715046616298, "timestamp": "2025-12-07T22:37:43.365259+00:00", "meta": {"OBJECT_NAME": "FENGYUN 1C DEB", "OBJECT_ID": "1999-025CPB", "EPOCH": "2025-12-04T11:32:51.698688", "MEAN_MOTION": 14.29356268, "ECCENTRICITY": 0.0071722, "INCLINATION": 98.3792, "RA_OF_ASC_NODE": 349.9234, "ARG_OF_PERICENTER": 327.4544, "MEAN_ANOMALY": 32.2227, "EPHEMERIS_TYPE": 0, "CLASSIFICATION_TYPE": "U", "NORAD_CAT_ID": 31974, "ELEMENT_SET_NO": 999, "REV_AT_EPOCH": 69304, "BSTAR": 0.005893, "MEAN_MOTION_DOT": 0.00015424, "MEAN_MOTION_DDOT": 0}, "tle": {"line1": "1 31974U 99025CPB 25338.48115392  .00015424  00000+0  58930-2 0  9995", "line2": "2 31974  98.3792 349.9234 0071722 327.4544  32.2227 14.29356268693042"}}, "geometry": {"type": "Point", "coordinates": [175.84804905359044, 17.078198075715747]}}, {"type": "Feature", "properties": {"norad_id": 31978, "name": "FENGYUN 1C DEB", "group": "fengyun-1c-debris", "lat": -80.00671653855707, "lon": -99.1386535907297, "alt_km": 1211.8745720518928, "timestamp": "2025-12-07T22:37:43.365270+00:00", "meta": {"OBJECT_NAME": "FENGYUN 1C DEB", "OBJECT_ID": "1999-025CPF", "EPOCH": "2025-12-05T09:26:48.442272", "MEAN_MOTION": 13.63089053, "ECCENTRICITY": 0.02631323, "INCLINATION": 98.3803, "RA_OF_ASC_NODE": 135.4409, "ARG_OF_PERICENTER": 69.4232, "MEAN_ANOMALY": 293.4931, "EPHEMERIS_TYPE": 0, "CLASSIFICATION_TYPE": "U", "NORAD_CAT_ID": 31978, "ELEMENT_SET_NO": 999, "REV_AT_EPOCH": 91490, "BSTAR": 0.0019607422, "MEAN_MOTION_DOT": 1.908e-05, "MEAN_MOTION_DDOT": 0}, "tle": {"line1": "1 31978U 99025CPF 25339.39361623  .00001908  00000+0  19607-2 0  9990", "line2": "2 31978  98.3803 135.4409 0263132  69.4232 293.4931 13.63089053914902"}}, "geometry": {"type": "Point", "coordinates": [-99.1386535907297, -80.00671653855707]}}, {"type": "Feature", "properties": {"norad_id": 31979, "name": "FENGYUN 1C DEB", "group": "fengyun-1c-debris", "lat": 73.46090674866238, "lon": 40.85217315862742, "alt_km": 1148.9559244057891, "timestamp": "2025-12-07T22:37:43.365280+00:00", "meta": {"OBJECT_NAME": "FENGYUN 1C DEB", "OBJECT_ID": "1999-025CPG", "EPOCH": "2025-12-02T12:28:35.492736", "MEAN_MOTION": 13.69187291, "ECCENTRICITY": 0.02646506, "INCLINATION": 99.3777, "RA_OF_ASC_NODE": 69.3826, "ARG_OF_PERICENTER": 307.5764, "MEAN_ANOMALY": 50.1611, "EPHEMERIS_TYPE": 0, "CLASSIFICATION_TYPE": "U", "NORAD_CAT_ID": 31979, "ELEMENT_SET_NO": 999, "REV_AT_EPOCH": 57772, "BSTAR": 0.003510695, "MEAN_MOTION_DOT": 3.844e-05, "MEAN_MOTION_DDOT": 0}, "tle": {"line1": "1 31979U 99025CPG 25336.51985524  .00003844  00000+0  35107-2 0  9998", "line2": "2 31979  99.3777  69.3826 0264650 307.5764  50.1611 13.69187291577721"}}, "geometry": {"type": "Point", "coordinates": [40.85217315862742, 73.46090674866238]}}, {"type": "Feature", "properties": {"norad_id": 31984, "name": "FENGYUN 1C DEB", "group": "fengyun-1c-debris", "lat": -78.81732285327554, "lon": 116.80236743300154, "alt_km": 780.7175958739836, "timestamp": "2025-12-07T22:37:43.365291+00:00", "meta": {"OBJECT_NAME": "FENGYUN 1C DEB", "OBJECT_ID": "1999-025CPM", "EPOCH": "2025-12-02T19:53:15.322848", "MEAN_MOTION": 14.2293256, "ECCENTRICITY": 0.00625309, "INCLINATION": 98.5577, "RA_OF_ASC_NODE": 341.445, "ARG_OF_PERICENTER": 256.5759, "MEAN_ANOMALY": 102.8445, "EPHEMERIS_TYPE": 0, "CLASSIFICATION_TYPE": "U", "NORAD_CAT_ID": 31984, "ELEMENT_SET_NO": 999, "REV_AT_EPOCH": 94232, "BSTAR": 0.00049073387, "MEAN_MOTION_DOT": 1.083e-05, "MEAN_MOTION_DDOT": 0}, "tle": {"line1": "1 31984U 99025CPM 25336.82864957  .00001083  00000+0  49073-3 0  9995", "line2": "2 31984  98.5577 341.4450 0062530 256.5759 102.8445 14.22932560942322"}}, "geometry": {"type": "Point", "coordinates": [116.80236743300154, -78.81732285327554]}}, {"type": "Feature", "properties": {"norad_id": 31985, "name": "FENGYUN 1C DEB", "group": "fengyun-1c-debris", "lat": 37.57471802700484, "lon": -122.90786280319398, "alt_km": 891.0931598929719, "timestamp": "2025-12-07T22:37:43.365301+00:00", "meta": {"OBJECT_NAME": "FENGYUN 1C DEB", "OBJECT_ID": "1999-025CPN", "EPOCH": "2025-11-24T23:55:40.651392", "MEAN_MOTION": 14.22924304, "ECCENTRICITY": 0.01509495, "INCLINATION": 98.2192, "RA_OF_ASC_NODE": 231.3867, "ARG_OF_PERICENTER": 299.2224, "MEAN_ANOMALY": 59.3931, "EPHEMERIS_TYPE": 0, "CLASSIFICATION_TYPE": "U", "NORAD_CAT_ID": 31985, "ELEMENT_SET_NO": 999, "REV_AT_EPOCH": 95358, "BSTAR": 0.0005103033, "MEAN_MOTION_DOT": 1.248e-05, "MEAN_MOTION_DDOT": 0}, "tle": {"line1": "1 31985U 99025CPN 25328.99699828  .00001248  00000+0  51030-3 0  9997", "line2": "2 31985  98.2192 231.3867 0150949 299.2224  59.3931 14.22924304953588"}}, "geometry": {"type": "Point", "coordinates": [-122.90786280319398, 37.57471802700484]}}, {"type": "Feature", "properties": {"norad_id": 31987, "name": "FENGYUN 1C DEB", "group": "fengyun-1c-debris", "lat": 17.940495525267103, "lon": 138.19775576127685, "alt_km": 706.973263478686, "timestamp": "2025-12-07T22:37:43.365311+00:00", "meta": {"OBJECT_NAME": "FENGYUN 1C DEB", "OBJECT_ID": "1999-025CPQ", "EPOCH": "2025-12-06T10:01:04.571328", "MEAN_MOTION": 14.4484667, "ECCENTRICITY": 0.00511263, "INCLINATION": 99.0387, "RA_OF_ASC_NODE": 313.6218, "ARG_OF_PERICENTER": 176.5053, "MEAN_ANOMALY": 335.2452, "EPHEMERIS_TYPE": 0, "CLASSIFICATION_TYPE": "U", "NORAD_CAT_ID": 31987, "ELEMENT_SET_NO": 999, "REV_AT_EPOCH": 96278, "BSTAR": 0.0019083415, "MEAN_MOTION_DOT": 6.7e-05, "MEAN_MOTION_DDOT": 0}, "tle": {"line1": "1 31987U 99025CPQ 25340.41741402  .00006700  00000+0  19083-2 0  9995", "line2": "2 31987  99.0387 313.6218 0051126 176.5053 335.2452 14.44846670962782"}}, "geometry": {"type": "Point", "coordinates": [138.19775576127685, 17.940495525267103]}}]}